{
    "links": {
        "self": "http://www.neowsapp.com/rest/v1/neo/3726815?api_key=iIulBulltgU6a56xZRHN4H3l9WmuAYTsLGpBGhQ2"
    },
    "id": "3726815",
    "neo_reference_id": "3726815",
    "name": "(2015 RV2)",
    "designation": "2015 RV2",
    "nasa_jpl_url": "http://ssd.jpl.nasa.gov/sbdb.cgi?sstr=3726815",
    "absolute_magnitude_h": 24.2,
    "estimated_diameter": {
        "kilometers": {
            "estimated_diameter_min": 0.0384197891,
            "estimated_diameter_max": 0.0859092601
        },
        "meters": {
            "estimated_diameter_min": 38.4197891064,
            "estimated_diameter_max": 85.9092601232
        },
        "miles": {
            "estimated_diameter_min": 0.0238729428,
            "estimated_diameter_max": 0.0533815229
        },
        "feet": {
            "estimated_diameter_min": 126.0491808919,
            "estimated_diameter_max": 281.8545369825
        }
    },
    "is_potentially_hazardous_asteroid": false,
    "close_approach_data": [
        {
            "close_approach_date": "2015-08-29",
            "close_approach_date_full": "2015-Aug-29 10:35",
            "epoch_date_close_approach": 1440844500000,
            "relative_velocity": {
                "kilometers_per_second": "8.1255493578",
                "kilometers_per_hour": "29251.9776881993",
                "miles_per_hour": "18176.0413585369"
            },
            "miss_distance": {
                "astronomical": "0.1007261881",
                "lunar": "39.1824871709",
                "kilometers": "15068423.192979347",
                "miles": "9363084.0001431086"
            },
            "orbiting_body": "Earth"
        },
        {
            "close_approach_date": "2141-03-15",
            "close_approach_date_full": "2141-Mar-15 11:11",
            "epoch_date_close_approach": 5402632260000,
            "relative_velocity": {
                "kilometers_per_second": "10.0898776385",
                "kilometers_per_hour": "36323.5594987249",
                "miles_per_hour": "22570.0472896383"
            },
            "miss_distance": {
                "astronomical": "0.088756317",
                "lunar": "34.526207313",
                "kilometers": "13277755.97224479",
                "miles": "8250414.984326502"
            },
            "orbiting_body": "Mars"
        }
    ],
    "orbital_data": {
        "orbit_id": "9",
        "orbit_determination_date": "2017-04-06 08:32:10",
        "first_observation_date": "2015-09-06",
        "last_observation_date": "2015-10-05",
        "data_arc_in_days": 29,
        "observations_used": 24,
        "orbit_uncertainty": "7",
        "minimum_orbit_intersection": ".0750712",
        "jupiter_tisserand_invariant": "3.112",
        "epoch_osculation": "2459000.5",
        "eccentricity": ".5912006856508267",
        "semi_major_axis": "2.651285957137864",
        "inclination": "3.398773106323224",
        "ascending_node_longitude": "343.5319887436518",
        "orbital_period": "1576.824227576547",
        "perihelion_distance": "1.08384388142155",
        "perihelion_argument": "337.8090268078387",
        "aphelion_distance": "4.218728032854178",
        "perihelion_time": "2458829.376670097698",
        "mean_anomaly": "39.06865311139315",
        "mean_motion": ".228306994339687",
        "equinox": "J2000",
        "orbit_class": {
            "orbit_class_type": "AMO",
            "orbit_class_description": "Near-Earth asteroid orbits similar to that of 1221 Amor",
            "orbit_class_range": "1.017 AU < q (perihelion) < 1.3 AU"
        }
    },
    "is_sentry_object": false
}